NORAD_CAT_ID,OBJECT_NAME,OBJECT_TYPE,EPOCH,MEAN_MOTION,ECCENTRICITY,INCLINATION,RA_OF_ASC_NODE,ARG_OF_PERICENTER,MEAN_ANOMALY,BSTAR,MEAN_MOTION_DOT,MEAN_MOTION_DDOT,TLE_LINE0,TLE_LINE1,TLE_LINE2,SEMIMAJOR_AXIS,PERIOD,APOGEE,PERIGEE,DECAYED
55309.0,STARLINK-5315,PAYLOAD,2023-06-15 16:20:45,15.69922658,0.0003761,69.9973,15.1919,270.4041,89.6724,7.1408e-06,6.46e-06,0.0,0 STARLINK-5315,1 55309U 23010AS  23166.68108364  .00000646  00000-0  71408-5 0  9993,2 55309  69.9973  15.1919 0003761 270.4041  89.6724 15.69922658 23923,6737.255,91.724,361.654,356.586,0.0
55309.0,STARLINK-5315,PAYLOAD,2023-06-16 01:31:15,15.69929287,0.000363,69.9966,14.1161,266.0285,94.0495,1.2096e-05,1.242e-05,0.0,0 STARLINK-5315,1 55309U 23010AS  23167.06337796  .00001242  00000-0  12096-4 0  9999,2 55309  69.9966  14.1161 0003630 266.0285  94.0495 15.69929287 23660,6737.236,91.724,361.547,356.656,0.0
55309.0,STARLINK-5315,PAYLOAD,2023-06-16 15:17:02,15.69924269,0.0003634,69.9965,12.5037,268.1815,91.8964,5.7969e-06,4.84e-06,0.0,0 STARLINK-5315,1 55309U 23010AS  23167.63683243  .00000484  00000-0  57969-5 0  9999,2 55309  69.9965  12.5037 0003634 268.1815  91.8964 15.69924269 23750,6737.251,91.724,361.564,356.667,0.0
55309.0,STARLINK-5315,PAYLOAD,2023-06-16 19:52:17,15.69924947,0.000362,69.9965,11.9665,267.7493,92.3288,6.4348e-06,5.61e-06,0.0,0 STARLINK-5315,1 55309U 23010AS  23167.82798168  .00000561  00000-0  64348-5 0  9998,2 55309  69.9965  11.9665 0003620 267.7493  92.3288 15.69924947 24100,6737.249,91.724,361.553,356.675,0.0
55309.0,STARLINK-5315,PAYLOAD,2023-06-16 22:55:49,15.69903312,0.0003422,69.9966,11.6082,268.5426,91.5378,-1.8353e-05,-2.417e-05,0.0,0 STARLINK-5315,1 55309U 23010AS  23167.95543392 -.00002417  00000-0 -18353-4 0  9997,2 55309  69.9966  11.6082 0003422 268.5426  91.5378 15.69903312 23806,6737.311,91.725,361.481,356.87,0.0
55309.0,STARLINK-5315,PAYLOAD,2023-06-17 12:41:35,15.69910387,0.0003997,69.9969,9.9961,267.039,93.0348,-1.009e-05,-1.426e-05,0.0,0 STARLINK-5315,1 55309U 23010AS  23168.52888145 -.00001426  00000-0 -10090-4 0  9998,2 55309  69.9969   9.9961 0003997 267.0390  93.0348 15.69910387 24216,6737.29,91.725,361.848,356.462,0.0
55309.0,STARLINK-5315,PAYLOAD,2023-06-17 15:45:04,15.69929772,0.0002961,69.9989,9.6399,260.1134,99.9728,1.4435e-05,1.524e-05,0.0,0 STARLINK-5315,1 55309U 23010AS  23168.65629914  .00001524  00000-0  14435-4 0  9993,2 55309  69.9989   9.6399 0002961 260.1134  99.9728 15.69929772 23911,6737.235,91.724,361.095,357.105,0.0
55309.0,STARLINK-5315,PAYLOAD,2023-06-17 20:20:20,15.69918127,0.0004229,69.9953,9.0977,275.102,84.9693,-3.1033e-06,-5.86e-06,0.0,0 STARLINK-5315,1 55309U 23010AS  23168.84745930 -.00000586  00000-0 -31033-5 0  9994,2 55309  69.9953   9.0977 0004229 275.1020  84.9693 15.69918127 24263,6737.268,91.725,361.982,356.284,0.0
55309.0,STARLINK-5315,PAYLOAD,2023-06-18 07:02:35,15.69921595,0.0003302,69.9967,7.8465,270.1422,89.9395,1.1887e-06,-7e-07,0.0,0 STARLINK-5315,1 55309U 23010AS  23169.29347197 -.00000070  00000-0  11887-5 0  9999,2 55309  69.9967   7.8465 0003302 270.1422  89.9395 15.69921595 24018,6737.258,91.724,361.348,356.899,0.0
55309.0,STARLINK-5315,PAYLOAD,2023-06-18 13:09:36,15.69922782,0.000376,69.9966,7.1299,269.4774,90.5991,4.6634e-06,3.48e-06,0.0,0 STARLINK-5315,1 55309U 23010AS  23169.54833588  .00000348  00000-0  46634-5 0  9996,2 55309  69.9966   7.1299 0003760 269.4774  90.5991 15.69922782 24372,6737.255,91.724,361.653,356.587,0.0
55309.0,STARLINK-5315,PAYLOAD,2023-06-18 19:16:36,15.69922711,0.0003693,69.9966,6.4131,268.8234,91.2538,6.2815e-06,5.42e-06,0.0,0 STARLINK-5315,1 55309U 23010AS  23169.80320261  .00000542  00000-0  62815-5 0  9999,2 55309  69.9966   6.4131 0003693 268.8234  91.2538 15.69922711 24410,6737.255,91.724,361.608,356.632,0.0
55309.0,STARLINK-5315,PAYLOAD,2023-06-19 12:05:53,15.69910839,0.00037,69.9975,4.4432,270.7455,89.3317,1.1827e-05,1.209e-05,0.0,0 STARLINK-5315,1 55309U 23010AS  23170.50409476  .00001209  00000-0  11827-4 0  9991,2 55309  69.9975   4.4432 0003700 270.7455  89.3317 15.69910839 24521,6737.289,91.725,361.647,356.661,0.0
55309.0,STARLINK-5315,PAYLOAD,2023-06-19 16:41:09,15.69918117,0.0003366,69.9977,3.9056,272.9555,87.1255,-2.4898e-06,-5.12e-06,0.0,0 STARLINK-5315,1 55309U 23010AS  23170.69524504 -.00000512  00000-0 -24898-5 0  9992,2 55309  69.9977   3.9056 0003366 272.9555  87.1255 15.69918117 24234,6737.268,91.725,361.401,356.866,0.0
55309.0,STARLINK-5315,PAYLOAD,2023-06-19 19:44:38,15.69927596,0.0003298,69.9987,3.5484,265.1798,94.9021,-5.4002e-06,-8.62e-06,0.0,0 STARLINK-5315,1 55309U 23010AS  23170.82267251 -.00000862  00000-0 -54002-5 0  9998,2 55309  69.9987   3.5484 0003298 265.1798  94.9021 15.69927596 24578,6737.241,91.724,361.328,356.884,0.0
55309.0,STARLINK-5315,PAYLOAD,2023-06-20 00:19:54,15.69936361,0.0003355,69.9989,3.0112,265.5735,94.5078,-2.2239e-05,-2.887e-05,0.0,0 STARLINK-5315,1 55309U 23010AS  23171.01381972 -.00002887  00000-0 -22239-4 0  9992,2 55309  69.9989   3.0112 0003355 265.5735  94.5078 15.69936361 24288,6737.216,91.723,361.341,356.821,0.0
55309.0,STARLINK-5315,PAYLOAD,2023-06-20 06:26:53,15.69946409,0.0003808,69.9971,2.293,269.1954,90.8806,-2.6169e-05,-3.362e-05,0.0,0 STARLINK-5315,1 55309U 23010AS  23171.26867876 -.00003362  00000-0 -26169-4 0  9996,2 55309  69.9971   2.2930 0003808 269.1954  90.8806 15.69946409 24321,6737.187,91.723,361.618,356.487,0.0
55309.0,STARLINK-5315,PAYLOAD,2023-06-20 12:33:55,15.69926455,0.000325,69.9978,1.5764,271.1916,88.8908,-1.0627e-06,-3.41e-06,0.0,0 STARLINK-5315,1 55309U 23010AS  23171.52355533 -.00000341  00000-0 -10627-5 0  9994,2 55309  69.9978   1.5764 0003250 271.1916  88.8908 15.69926455 24685,6737.244,91.724,361.299,356.92,0.0
55309.0,STARLINK-5315,PAYLOAD,2023-06-20 20:12:40,15.69926814,0.0003051,69.9986,0.682,275.5291,84.5556,4.3472e-06,3.1e-06,0.0,0 STARLINK-5315,1 55309U 23010AS  23171.84213757  .00000310  00000-0  43472-5 0  9998,2 55309  69.9986   0.6820 0003051 275.5291  84.5556 15.69926814 24737,6737.243,91.724,361.164,357.053,0.0
55309.0,STARLINK-5315,PAYLOAD,2023-06-21 13:01:57,15.6991806,0.0003241,69.9989,358.7107,270.2589,89.8235,9.9308e-06,9.81e-06,0.0,0 STARLINK-5315,1 55309U 23010AS  23172.54302601  .00000981  00000-0  99308-5 0  9996,2 55309  69.9989 358.7107 0003241 270.2589  89.8235 15.69918060 24521,6737.268,91.725,361.317,356.95,0.0
55309.0,STARLINK-5315,PAYLOAD,2023-06-21 19:08:57,15.69924002,0.000311,69.9987,357.9934,265.3854,94.6987,1.6246e-05,1.741e-05,0.0,0 STARLINK-5315,1 55309U 23010AS  23172.79788794  .00001741  00000-0  16246-4 0  9998,2 55309  69.9987 357.9934 0003110 265.3854  94.6987 15.69924002 24883,6737.251,91.724,361.212,357.021,0.0
55309.0,STARLINK-5315,PAYLOAD,2023-06-22 15:01:44,15.69925448,0.0003591,69.9983,355.6648,271.8888,88.1896,7.2331e-06,6.57e-06,0.0,0 STARLINK-5315,1 55309U 23010AS  23173.62620658  .00000657  00000-0  72331-5 0  9998,2 55309  69.9983 355.6648 0003591 271.8888  88.1896 15.69925448 24699,6737.247,91.724,361.532,356.693,0.0
55309.0,STARLINK-5315,PAYLOAD,2023-06-22 21:08:44,15.69932301,0.0003766,69.9974,354.9482,271.9066,88.1698,9.6948e-06,9.53e-06,0.0,0 STARLINK-5315,1 55309U 23010AS  23173.88106765  .00000953  00000-0  96948-5 0  9993,2 55309  69.9974 354.9482 0003766 271.9066  88.1698 15.69932301 24731,6737.228,91.724,361.63,356.555,0.0
55309.0,STARLINK-5315,PAYLOAD,2023-06-23 18:33:19,15.69890872,0.0004228,69.9969,352.44,273.8743,86.197,-3.1795e-05,-4.03e-05,0.0,0 STARLINK-5315,1 55309U 23010AS  23174.77314586 -.00004030  00000-0 -31795-4 0  9994,2 55309  69.9969 352.4400 0004228 273.8743  86.1970 15.69890872 24877,6737.346,91.726,362.06,356.363,0.0
55309.0,STARLINK-5315,PAYLOAD,2023-06-23 21:36:47,15.69923699,0.0003827,69.9978,352.081,274.8625,85.2134,5.8279e-06,4.88e-06,0.0,0 STARLINK-5315,1 55309U 23010AS  23174.90055316  .00000488  00000-0  58279-5 0  9990,2 55309  69.9978 352.0810 0003827 274.8625  85.2134 15.69923699 24890,6737.252,91.724,361.696,356.539,0.0
55309.0,STARLINK-5315,PAYLOAD,2023-06-24 05:15:31,15.69948716,0.0004388,69.9958,351.1848,273.1456,86.9238,1.8671e-05,2.035e-05,0.0,0 STARLINK-5315,1 55309U 23010AS  23175.21911545  .00002035  00000-0  18671-4 0  9991,2 55309  69.9958 351.1848 0004388 273.1456  86.9238 15.69948716 24942,6737.181,91.723,362.002,356.089,0.0
55309.0,STARLINK-5315,PAYLOAD,2023-06-24 14:26:02,15.69939973,0.0003764,69.9969,350.1094,274.6519,85.4247,1.9921e-05,2.185e-05,0.0,0 STARLINK-5315,1 55309U 23010AS  23175.60141745  .00002185  00000-0  19921-4 0  9996,2 55309  69.9969 350.1094 0003764 274.6519  85.4247 15.69939973 25006,6737.206,91.723,361.607,356.535,0.0
55309.0,STARLINK-5315,PAYLOAD,2023-06-25 14:54:06,15.69900402,0.0003695,69.9973,347.2421,269.7335,90.3437,4.5429e-05,5.248e-05,0.0,0 STARLINK-5315,1 55309U 23010AS  23176.62090455  .00005248  00000-0  45429-4 0  9995,2 55309  69.9973 347.2421 0003695 269.7335  90.3437 15.69900402 25164,6737.319,91.726,361.673,356.695,0.0
55309.0,STARLINK-5315,PAYLOAD,2023-06-25 21:01:08,15.69883285,0.0003441,69.9987,346.5271,281.883,78.1979,2.2222e-05,2.456e-05,0.0,0 STARLINK-5315,1 55309U 23010AS  23176.87578948  .00002456  00000-0  22222-4 0  9994,2 55309  69.9987 346.5271 0003441 281.8830  78.1979 15.69883285 25207,6737.368,91.727,361.551,356.915,0.0
55309.0,STARLINK-5315,PAYLOAD,2023-06-26 04:39:52,15.69923174,0.0003757,69.9968,345.631,278.3761,81.7009,-1.3171e-05,-1.797e-05,0.0,0 STARLINK-5315,1 55309U 23010AS  23177.19435708 -.00001797  00000-0 -13171-4 0  9998,2 55309  69.9968 345.6310 0003757 278.3761  81.7009 15.69923174 25255,6737.254,91.724,361.65,356.588,0.0
55309.0,STARLINK-5315,PAYLOAD,2023-06-26 13:50:22,15.69940617,0.0004266,69.9967,344.5553,277.5178,82.5533,-3.3343e-05,-4.224e-05,0.0,0 STARLINK-5315,1 55309U 23010AS  23177.57664632 -.00004224  00000-0 -33343-4 0  9991,2 55309  69.9967 344.5553 0004266 277.5178  82.5533 15.69940617 25319,6737.204,91.723,361.943,356.195,0.0
